ONEWEB-0709             
1 55172U 23004AJ  25362.14698687  .00000554  00000+0  15276-2 0  9992
2 55172  87.8840  55.1435 0000910  88.1100 272.0133 13.11414501143454
ONEWEB-0710             
1 55173U 23004AK  25362.49927914 -.00000026  00000+0 -99355-4 0  9997
2 55173  87.9092  39.8063 0001825 102.5887 257.5449 13.17649039145104
ONEWEB-0711             
1 55174U 23004AL  25362.19446508 -.00000290  00000+0 -85340-3 0  9991
2 55174  87.8850  55.1092 0002187 120.8087 239.3256 13.11420518143426
ONEWEB-0713             
1 55175U 23004AM  25362.44200420  .00000447  00000+0  12265-2 0  9998
2 55175  87.8844  55.0617 0001999 113.2125 246.9214 13.11417353143444
ONEWEB-0715             
1 55176U 23004AN  25362.43691366  .00000324  00000+0  87943-3 0  9991
2 55176  87.8846  55.0631 0001087 111.9783 248.1460 13.11417803143487
ONEWEB-0716             
1 55177U 23004AP  25362.49251332  .00000040  00000+0  69681-4 0  9998
2 55177  87.9096  39.8076 0001864  90.4347 269.6998 13.17650887145101
ONEWEB-0717             
1 55178U 23004AQ  25362.17188654  .00000069  00000+0  14423-3 0  9994
2 55178  87.9107  39.8439 0001923 118.8472 241.2853 13.17651310145117
ONEWEB-0719             
1 55179U 23004AR  25362.40984429  .00000036  00000+0  60676-4 0  9991
2 55179  87.9105  39.7788 0001993  93.7372 266.3987 13.17648392145098
ONEWEB-0530             
1 55796U 23029A   25362.41040433  .00000184  00000+0  42008-3 0  9994
2 55796  87.9211 308.5442 0002014  92.9331 267.2033 13.20771486138602
ONEWEB-0534             
1 55797U 23029B   25362.39778917  .00000043  00000+0  73213-4 0  9994
2 55797  87.9212 308.5468 0001919  76.5622 283.5725 13.20770391138609
ONEWEB-0556             
1 55798U 23029C   25362.32832619  .00000056  00000+0  10563-3 0  9990
2 55798  87.9217 308.5610 0002772  76.7206 283.4236 13.20773348138591
ONEWEB-0562             
1 55799U 23029D   25362.23996090 -.00000020  00000+0 -79957-4 0  9991
2 55799  87.9211 308.5600 0002565  95.7126 264.4300 13.20772115138588
ONEWEB-0563             
1 55800U 23029E   25362.30940661  .00000085  00000+0  17779-3 0  9997
2 55800  87.9218 308.5745 0002011  70.4477 289.6874 13.20770667138588
ONEWEB-0564             
1 55801U 23029F   25362.30309116  .00000133  00000+0  29520-3 0  9993
2 55801  87.9210 308.5512 0002022  87.9662 272.1703 13.20771500138590
ONEWEB-0638             
1 55802U 23029G   25362.43252608  .00000257  00000+0  65795-3 0  9992
2 55802  87.8998 323.7884 0002262  84.3326 275.8062 13.14501596136964
ONEWEB-0639             
1 55803U 23029H   25362.44413705  .00000051  00000+0  95991-4 0  9995
2 55803  87.9210 338.9531 0001945  50.5734 309.5571 13.19725238136387
ONEWEB-0640             
1 55804U 23029J   25362.44203576  .00000111  00000+0  26370-3 0  9990
2 55804  87.9003 323.7751 0002507  72.7884 287.3520 13.14501070136985
ONEWEB-0641             
1 55805U 23029K   25362.43939228  .00000146  00000+0  33260-3 0  9994
2 55805  87.9214 338.9362 0001772  78.7237 281.4095 13.19726001136392
ONEWEB-0642             
1 55806U 23029L   25362.43465507  .00000148  00000+0  33817-3 0  9999
2 55806  87.9199 338.9588 0001570  54.2763 305.8515 13.19725883136388
ONEWEB-0643             
1 55807U 23029M   25362.41190639  .00000121  00000+0  29204-3 0  9995
2 55807  87.9002 323.7677 0001355  59.7753 300.3511 13.14502255136953
ONEWEB-0644             
1 55808U 23029N   25362.20245049  .00000223  00000+0  52520-3 0  9999
2 55808  87.9200 339.0141 0001601  72.0685 288.0622 13.19727697136359
ONEWEB-0645             
1 55809U 23029P   25362.45203764  .00000018  00000+0  11433-4 0  9996
2 55809  87.9196 338.9577 0002013  68.4298 291.7049 13.19725434136386
ONEWEB-0646             
1 55810U 23029Q   25362.46941222  .00000060  00000+0  11838-3 0  9992
2 55810  87.9208 338.9474 0001655  75.0598 285.0718 13.19725469136372
ONEWEB-0648             
1 55811U 23029R   25362.30407711 -.00000143  00000+0 -41918-3 0  9992
2 55811  87.9006 323.7507 0002152  54.6555 305.4776 13.14502185136944
ONEWEB-0649             
1 55812U 23029S   25362.49467567  .00000066  00000+0  13165-3 0  9993
2 55812  87.9208 338.9389 0001850  70.4143 289.7189 13.19725909136418
ONEWEB-0650             
1 55813U 23029T   25362.48994350  .00000076  00000+0  15809-3 0  9996
2 55813  87.9207 338.9450 0001694  67.8957 292.2355 13.19724919136386
ONEWEB-0652             
1 55814U 23029U   25362.43728104  .00000166  00000+0  41308-3 0  9997
2 55814  87.9003 323.7441 0001824  86.9969 273.1370 13.14501202136932
ONEWEB-0653             
1 55815U 23029V   25362.42142316  .00000250  00000+0  64036-3 0  9999
2 55815  87.9001 323.7365 0001937  83.4691 276.6659 13.14501659136962
ONEWEB-0654             
1 55816U 23029W   25362.34054713  .00000248  00000+0  63320-3 0  9996
2 55816  87.9002 323.7522 0001917  91.8431 268.2918 13.14502316136979
ONEWEB-0656             
1 55817U 23029X   25362.29677567  .00000109  00000+0  23573-3 0  9991
2 55817  87.9220 308.5112 0001981  92.0088 268.1272 13.20772103138592
ONEWEB-0657             
1 55818U 23029Y   25362.48518519 -.00000004  00000+0 -42453-4 0  9999
2 55818  87.9200 338.9473 0001387 109.0050 251.1233 13.19727712136395
ONEWEB-0658             
1 55819U 23029Z   25362.32882241  .00000024  00000+0  28062-4 0  9999
2 55819  87.9218 338.9348 0001596  70.6670 289.4635 13.19726877136389
ONEWEB-0660             
1 55820U 23029AA  25362.39445759 -.00000083  00000+0 -25714-3 0  9994
2 55820  87.9010 323.7217 0002024  74.6859 285.4494 13.14501353136966
ONEWEB-0661             
1 55821U 23029AB  25362.35323420  .00000320  00000+0  82799-3 0  9999
2 55821  87.9001 323.7939 0002084  77.3117 282.8245 13.14501433136943
ONEWEB-0662             
1 55822U 23029AC  25362.46424131 -.00000162  00000+0 -47149-3 0  9999
2 55822  87.9002 323.7784 0002023  74.6154 285.5199 13.14502277137000
ONEWEB-0663             
1 55823U 23029AD  25362.41833683  .00000188  00000+0  43108-3 0  9998
2 55823  87.9229 308.5544 0001942  65.8174 294.3163 13.20855115138605
ONEWEB-0664             
1 55824U 23029AE  25362.28414735  .00000119  00000+0  26044-3 0  9991
2 55824  87.9212 308.5847 0002195  82.3675 277.7707 13.20771494138588
ONEWEB-0665             
1 55825U 23029AF  25362.42617978  .00000248  00000+0  63334-3 0  9998
2 55825  87.9001 323.7581 0001961  71.4176 288.7166 13.14501883136972
ONEWEB-0666             
1 55826U 23029AG  25362.35357602  .00000429  00000+0  10241-2 0  9995
2 55826  87.9218 308.5596 0001594 100.6849 259.4463 13.20783318138603
ONEWEB-0667             
1 55827U 23029AH  25362.34728022  .00000099  00000+0  21086-3 0  9996
2 55827  87.9227 308.4955 0001994  76.3228 283.8127 13.20772711138597
ONEWEB-0669             
1 55828U 23029AJ  25362.41823936 -.00000671  00000+0 -16815-2 0  9996
2 55828  87.9182 308.5156 0002074  95.4033 264.7337 13.20785096138601
ONEWEB-0670             
1 55829U 23029AK  25362.32786615  .00000017  00000+0  10208-4 0  9993
2 55829  87.9000 323.7974 0002186  79.7589 280.3787 13.14504192136984
ONEWEB-0671             
1 55830U 23029AL  25362.47570951 -.00000027  00000+0 -99011-4 0  9997
2 55830  87.9209 338.9464 0001927  80.1686 279.9665 13.19726922136380
ONEWEB-0672             
1 55831U 23029AM  25362.41356834  .00000114  00000+0  24804-3 0  9996
2 55831  87.9217 308.4961 0001739  87.2797 272.8535 13.20771681138605
ONEWEB-0673             
1 55832U 23029AN  25362.45281516  .00000012  00000+0 -23500-5 0  9997
2 55832  87.9220 338.9327 0001933  82.1360 277.9992 13.19727127136380
ONEWEB-0674             
1 55833U 23029AP  25362.44838477  .00000016  00000+0  94820-5 0  9997
2 55833  87.9000 323.7510 0002252  80.0245 280.1139 13.14501166136980
ONEWEB-0675             
1 55834U 23029AQ  25362.46782955  .00000051  00000+0  94219-4 0  9999
2 55834  87.9196 338.9552 0001511  87.4143 272.7162 13.19725806136400
ONEWEB-0720             
1 55835U 23029AR  25362.38411041  .00000028  00000+0  37764-4 0  9992
2 55835  87.9201 338.9702 0001834  72.9058 287.2276 13.19725928136319
ONEWEB-0537             
1 56046U 23043A   25362.42942573  .00000055  00000+0  11132-3 0  9997
2 56046  87.9045 262.7718 0001434  79.1408 280.9884 13.16593170136498
ONEWEB-0538             
1 56047U 23043B   25362.42308314  .00000056  00000+0  11340-3 0  9999
2 56047  87.9043 262.7769 0001355  68.8658 291.2617 13.16592803136500
ONEWEB-0546             
1 56048U 23043C   25362.48641824  .00000056  00000+0  11255-3 0  9997
2 56048  87.9055 262.7575 0001375  99.9064 260.2222 13.16592613136504
ONEWEB-0547             
1 56049U 23043D   25362.47781039  .00000039  00000+0  63397-4 0  9996
2 56049  87.9232 278.0233 0001651  69.5728 290.5583 13.21826934135675
ONEWEB-0548             
1 56050U 23043E   25362.20696898 -.00000035  00000+0 -12513-3 0  9998
2 56050  87.9040 262.8175 0002095  78.5260 281.6106 13.16595936136463
ONEWEB-0549             
1 56051U 23043F   25362.16761374  .00000095  00000+0  19942-3 0  9993
2 56051  87.9226 278.0987 0001593  66.8904 293.2398 13.21827393135638
ONEWEB-0550             
1 56052U 23043G   25362.30584434  .00000015  00000+0  59370-5 0  9993
2 56052  87.9225 278.0663 0001782  78.5939 281.5395 13.21824565135654
ONEWEB-0551             
1 56053U 23043H   25362.33047539  .00000208  00000+0  51748-3 0  9990
2 56053  87.9003 293.3288 0001738  68.4558 291.6757 13.15547492133935
ONEWEB-0552             
1 56054U 23043J   25362.22519792 -.00000017  00000+0 -72697-4 0  9991
2 56054  87.9225 278.0910 0001829  67.0896 293.0431 13.21828067135647
ONEWEB-0553             
1 56055U 23043K   25362.49274940  .00000018  00000+0  14000-4 0  9997
2 56055  87.9045 262.7621 0001576  87.4194 272.7117 13.16592341136512
ONEWEB-0554             
1 56056U 23043L   25362.48009326  .00000071  00000+0  15150-3 0  9996
2 56056  87.9034 262.7771 0001847  77.7245 282.4093 13.16594092136490
